start=new Date('2021-10-25T00:00:00.000Z').valueOf();
sats=[{"REV_AT_EPOCH":"8468","EPOCH":"2021-10-24T20:20:07.806912","MEAN_MOTION":"15.06397830","TIME_SYSTEM":"UTC","GP_ID":"188104042","CLASSIFICATION_TYPE":"U","COUNTRY_CODE":"US","MEAN_ANOMALY":"256.8028","ARG_OF_PERICENTER":"103.3104","MEAN_MOTION_DOT":"0.00000173","MEAN_ELEMENT_THEORY":"SGP4","OBJECT_ID":"2020-025AD","TLE_LINE2":"2 45558  53.0555  55.1292 0001283 103.3104 256.8028 15.06397830 84681","CENTER_NAME":"EARTH","EPHEMERIS_TYPE":"0","APOAPSIS":"548.109","BSTAR":"0.00003047600000","LAUNCH_DATE":"2020-04-22","OBJECT_TYPE":"PAYLOAD","SITE":"AFETR","MEAN_MOTION_DDOT":"0.0000000000000","REF_FRAME":"TEME","DECAY_DATE":null,"FILE":"3182768","SEMIMAJOR_AXIS":"6925.355","RA_OF_ASC_NODE":"55.1292","ELEMENT_SET_NO":"999","ECCENTRICITY":"0.00012830","INCLINATION":"53.0555","OBJECT_NAME":"STARLINK-1342","TLE_LINE1":"1 45558U 20025AD  21297.84731258  .00000173  00000-0  30476-4 0  9990","RCS_SIZE":"LARGE","NORAD_CAT_ID":"45558","PERIOD":"95.592","PERIAPSIS":"546.332"},{"REV_AT_EPOCH":"8467","MEAN_MOTION":"15.06400761","EPOCH":"2021-10-24T18:02:07.938528","TLE_LINE2":"2 45559  53.0550  55.5539 0000970 100.8882 259.2216 15.06400761 84675","MEAN_ELEMENT_THEORY":"SGP4","OBJECT_ID":"2020-025AE","EPHEMERIS_TYPE":"0","CENTER_NAME":"EARTH","TIME_SYSTEM":"UTC","ARG_OF_PERICENTER":"100.8882","MEAN_MOTION_DOT":"0.00001228","GP_ID":"188102790","CLASSIFICATION_TYPE":"U","COUNTRY_CODE":"US","MEAN_ANOMALY":"259.2216","LAUNCH_DATE":"2020-04-22","APOAPSIS":"547.883","BSTAR":"0.00010131000000","OBJECT_TYPE":"PAYLOAD","ELEMENT_SET_NO":"999","SEMIMAJOR_AXIS":"6925.346","RA_OF_ASC_NODE":"55.5539","ECCENTRICITY":"0.00009700","MEAN_MOTION_DDOT":"0.0000000000000","SITE":"AFETR","FILE":"3182768","REF_FRAME":"TEME","DECAY_DATE":null,"TLE_LINE1":"1 45559U 20025AE  21297.75148077  .00001228  00000-0  10131-3 0  9999","INCLINATION":"53.0550","OBJECT_NAME":"STARLINK-1344","PERIOD":"95.592","NORAD_CAT_ID":"45559","PERIAPSIS":"546.539","RCS_SIZE":"LARGE"},{"REV_AT_EPOCH":"8482","MEAN_MOTION":"15.06403816","EPOCH":"2021-10-24T19:17:45.752064","MEAN_ELEMENT_THEORY":"SGP4","OBJECT_ID":"2020-025AF","TLE_LINE2":"2 45560  53.0560  45.3228 0001621  84.5519 275.5655 15.06403816 84828","CENTER_NAME":"EARTH","EPHEMERIS_TYPE":"0","TIME_SYSTEM":"UTC","COUNTRY_CODE":"US","GP_ID":"188103040","CLASSIFICATION_TYPE":"U","MEAN_ANOMALY":"275.5655","MEAN_MOTION_DOT":"0.00001663","ARG_OF_PERICENTER":"84.5519","LAUNCH_DATE":"2020-04-22","APOAPSIS":"548.324","BSTAR":"0.00013052000000","OBJECT_TYPE":"PAYLOAD","SEMIMAJOR_AXIS":"6925.337","RA_OF_ASC_NODE":"45.3228","ELEMENT_SET_NO":"999","ECCENTRICITY":"0.00016210","SITE":"AFETR","MEAN_MOTION_DDOT":"0.0000000000000","REF_FRAME":"TEME","DECAY_DATE":null,"FILE":"3182768","TLE_LINE1":"1 45560U 20025AF  21297.80400176  .00001663  00000-0  13052-3 0  9996","INCLINATION":"53.0560","OBJECT_NAME":"STARLINK-1346","NORAD_CAT_ID":"45560","PERIOD":"95.592","PERIAPSIS":"546.079","RCS_SIZE":"LARGE"},{"REV_AT_EPOCH":"8584","EPOCH":"2021-10-24T13:40:30.211104","MEAN_MOTION":"15.07331604","TIME_SYSTEM":"UTC","GP_ID":"188104292","COUNTRY_CODE":"US","CLASSIFICATION_TYPE":"U","MEAN_ANOMALY":"296.3166","ARG_OF_PERICENTER":"63.7875","MEAN_MOTION_DOT":"0.00004354","OBJECT_ID":"2020-025AG","MEAN_ELEMENT_THEORY":"SGP4","TLE_LINE2":"2 45561  53.0593 331.0791 0000501  63.7875 296.3166 15.07331604 85842","CENTER_NAME":"EARTH","EPHEMERIS_TYPE":"0","APOAPSIS":"544.707","BSTAR":"0.00030344000000","LAUNCH_DATE":"2020-04-22","OBJECT_TYPE":"PAYLOAD","SITE":"AFETR","MEAN_MOTION_DDOT":"0.0000000000000","REF_FRAME":"TEME","DECAY_DATE":null,"FILE":"3182768","ELEMENT_SET_NO":"999","SEMIMAJOR_AXIS":"6922.495","RA_OF_ASC_NODE":"331.0791","ECCENTRICITY":"0.00005010","INCLINATION":"53.0593","OBJECT_NAME":"STARLINK-1348","TLE_LINE1":"1 45561U 20025AG  21297.56979411  .00004354  00000-0  30344-3 0  9996","RCS_SIZE":"LARGE","NORAD_CAT_ID":"45561","PERIOD":"95.533","PERIAPSIS":"544.013"},{"RA_OF_ASC_NODE":"55.5243","SEMIMAJOR_AXIS":"6925.353","ELEMENT_SET_NO":"999","ECCENTRICITY":"0.00011440","MEAN_MOTION_DDOT":"0.0000000000000","SITE":"AFETR","FILE":"3182768","DECAY_DATE":null,"REF_FRAME":"TEME","OBJECT_TYPE":"PAYLOAD","PERIOD":"95.592","NORAD_CAT_ID":"45562","PERIAPSIS":"546.426","RCS_SIZE":"LARGE","TLE_LINE1":"1 45562U 20025AH  21297.75884826  .00001763  00000-0  13725-3 0  9998","INCLINATION":"53.0549","OBJECT_NAME":"STARLINK-1354","MEAN_MOTION":"15.06398452","EPOCH":"2021-10-24T18:12:44.489664","REV_AT_EPOCH":"8467","LAUNCH_DATE":"2020-04-22","APOAPSIS":"548.011","BSTAR":"0.00013725000000","TLE_LINE2":"2 45562  53.0549  55.5243 0001144  94.9182 265.1938 15.06398452 84679","OBJECT_ID":"2020-025AH","MEAN_ELEMENT_THEORY":"SGP4","EPHEMERIS_TYPE":"0","CENTER_NAME":"EARTH","TIME_SYSTEM":"UTC","MEAN_MOTION_DOT":"0.00001763","ARG_OF_PERICENTER":"94.9182","COUNTRY_CODE":"US","GP_ID":"188104543","CLASSIFICATION_TYPE":"U","MEAN_ANOMALY":"265.1938"},{"INCLINATION":"53.0560","OBJECT_NAME":"STARLINK-1355","TLE_LINE1":"1 45563U 20025AJ  21297.70724214  .00001389  00000-0  11212-3 0  9991","RCS_SIZE":"LARGE","PERIOD":"95.592","NORAD_CAT_ID":"45563","PERIAPSIS":"546.403","OBJECT_TYPE":"PAYLOAD","MEAN_MOTION_DDOT":"0.0000000000000","SITE":"AFETR","FILE":"3182768","DECAY_DATE":null,"REF_FRAME":"TEME","SEMIMAJOR_AXIS":"6925.358","RA_OF_ASC_NODE":"55.7578","ELEMENT_SET_NO":"999","ECCENTRICITY":"0.00011840","TIME_SYSTEM":"UTC","ARG_OF_PERICENTER":"95.0180","MEAN_MOTION_DOT":"0.00001389","GP_ID":"188103291","CLASSIFICATION_TYPE":"U","COUNTRY_CODE":"US","MEAN_ANOMALY":"265.0944","TLE_LINE2":"2 45563  53.0560  55.7578 0001184  95.0180 265.0944 15.06396792 84660","MEAN_ELEMENT_THEORY":"SGP4","OBJECT_ID":"2020-025AJ","EPHEMERIS_TYPE":"0","CENTER_NAME":"EARTH","APOAPSIS":"548.043","BSTAR":"0.00011212000000","LAUNCH_DATE":"2020-04-22","REV_AT_EPOCH":"8466","EPOCH":"2021-10-24T16:58:25.720896","MEAN_MOTION":"15.06396792"},{"OBJECT_TYPE":"PAYLOAD","DECAY_DATE":null,"REF_FRAME":"TEME","FILE":"3182768","SITE":"AFETR","MEAN_MOTION_DDOT":"0.0000000000000","ECCENTRICITY":"0.00012530","SEMIMAJOR_AXIS":"6925.385","ELEMENT_SET_NO":"999","RA_OF_ASC_NODE":"55.7683","OBJECT_NAME":"STARLINK-1356","INCLINATION":"53.0545","TLE_LINE1":"1 45564U 20025AK  21297.70356267 -.00000351  00000-0 -46520-5 0  9993","RCS_SIZE":"LARGE","PERIAPSIS":"546.383","NORAD_CAT_ID":"45564","PERIOD":"95.593","REV_AT_EPOCH":"8466","EPOCH":"2021-10-24T16:53:07.814688","MEAN_MOTION":"15.06387980","CLASSIFICATION_TYPE":"U","GP_ID":"188103541","COUNTRY_CODE":"US","MEAN_ANOMALY":"268.7324","ARG_OF_PERICENTER":"91.3808","MEAN_MOTION_DOT":"-0.00000351","TIME_SYSTEM":"UTC","CENTER_NAME":"EARTH","EPHEMERIS_TYPE":"0","MEAN_ELEMENT_THEORY":"SGP4","OBJECT_ID":"2020-025AK","TLE_LINE2":"2 45564  53.0545  55.7683 0001253  91.3808 268.7324 15.06387980 84665","BSTAR":"-0.00000465200000","APOAPSIS":"548.118","LAUNCH_DATE":"2020-04-22"},{"OBJECT_ID":"2020-025AL","MEAN_ELEMENT_THEORY":"SGP4","TLE_LINE2":"2 45565  53.0554  55.5083 0001369 103.3469 256.7673 15.06391554 84670","CENTER_NAME":"EARTH","EPHEMERIS_TYPE":"0","TIME_SYSTEM":"UTC","GP_ID":"188103792","COUNTRY_CODE":"US","CLASSIFICATION_TYPE":"U","MEAN_ANOMALY":"256.7673","MEAN_MOTION_DOT":"-0.00000230","ARG_OF_PERICENTER":"103.3469","LAUNCH_DATE":"2020-04-22","APOAPSIS":"548.188","BSTAR":"0.00000343140000","REV_AT_EPOCH":"8467","MEAN_MOTION":"15.06391554","EPOCH":"2021-10-24T18:18:03.313440","TLE_LINE1":"1 45565U 20025AL  21297.76253835 -.00000230  00000-0  34314-5 0  9990","INCLINATION":"53.0554","OBJECT_NAME":"STARLINK-1357","NORAD_CAT_ID":"45565","PERIOD":"95.593","PERIAPSIS":"546.291","RCS_SIZE":"LARGE","OBJECT_TYPE":"PAYLOAD","SEMIMAJOR_AXIS":"6925.374","RA_OF_ASC_NODE":"55.5083","ELEMENT_SET_NO":"999","ECCENTRICITY":"0.00013690","SITE":"AFETR","MEAN_MOTION_DDOT":"0.0000000000000","REF_FRAME":"TEME","DECAY_DATE":null,"FILE":"3182768"},{"REV_AT_EPOCH":"8468","EPOCH":"2021-10-24T20:14:50.199648","MEAN_MOTION":"15.06395334","TIME_SYSTEM":"UTC","ARG_OF_PERICENTER":"99.5222","MEAN_MOTION_DOT":"-0.00000001","GP_ID":"188104043","COUNTRY_CODE":"US","CLASSIFICATION_TYPE":"U","MEAN_ANOMALY":"260.5896","TLE_LINE2":"2 45566  53.0554  55.1490 0001147  99.5222 260.5896 15.06395334 84687","MEAN_ELEMENT_THEORY":"SGP4","OBJECT_ID":"2020-025AM","EPHEMERIS_TYPE":"0","CENTER_NAME":"EARTH","APOAPSIS":"548.022","BSTAR":"0.00001880000000","LAUNCH_DATE":"2020-04-22","OBJECT_TYPE":"PAYLOAD","MEAN_MOTION_DDOT":"0.0000000000000","SITE":"AFETR","FILE":"3182768","REF_FRAME":"TEME","DECAY_DATE":null,"SEMIMAJOR_AXIS":"6925.363","RA_OF_ASC_NODE":"55.1490","ELEMENT_SET_NO":"999","ECCENTRICITY":"0.00011470","INCLINATION":"53.0554","OBJECT_NAME":"STARLINK-1358","TLE_LINE1":"1 45566U 20025AM  21297.84363657 -.00000001  00000-0  18800-4 0  9991","RCS_SIZE":"LARGE","PERIOD":"95.592","NORAD_CAT_ID":"45566","PERIAPSIS":"546.434"},{"ECCENTRICITY":"0.00014420","SEMIMAJOR_AXIS":"6925.360","RA_OF_ASC_NODE":"55.0921","ELEMENT_SET_NO":"999","FILE":"3182768","REF_FRAME":"TEME","DECAY_DATE":null,"MEAN_MOTION_DDOT":"0.0000000000000","SITE":"AFETR","OBJECT_TYPE":"PAYLOAD","PERIAPSIS":"546.226","PERIOD":"95.592","NORAD_CAT_ID":"45567","RCS_SIZE":"LARGE","TLE_LINE1":"1 45567U 20025AN  21297.85468937  .00001285  00000-0  10514-3 0  9997","OBJECT_NAME":"STARLINK-1361","INCLINATION":"53.0548","MEAN_MOTION":"15.06396223","EPOCH":"2021-10-24T20:30:45.161568","REV_AT_EPOCH":"8469","LAUNCH_DATE":"2020-04-22","BSTAR":"0.00010514000000","APOAPSIS":"548.224","EPHEMERIS_TYPE":"0","CENTER_NAME":"EARTH","TLE_LINE2":"2 45567  53.0548  55.0921 0001442  93.0379 267.0775 15.06396223 84696","MEAN_ELEMENT_THEORY":"SGP4","OBJECT_ID":"2020-025AN","MEAN_MOTION_DOT":"0.00001285","ARG_OF_PERICENTER":"93.0379","GP_ID":"188102791","COUNTRY_CODE":"US","CLASSIFICATION_TYPE":"U","MEAN_ANOMALY":"267.0775","TIME_SYSTEM":"UTC"}];
